CZ-2D R/B               
1 28738U 05024B   26165.98773673  .00050365  00000+0  43034-3 0  9994
2 28738  97.3480 185.3063 0003668  60.3608 299.8019 15.69342618154994
ALOS (DAICHI)           
1 28931U 06002A   26166.32081111  .00000891  00000+0  15680-3 0  9999
2 28931  98.1323 121.8940 0001525  58.2131 301.9223 14.70046770 87820
H-2A R/B                
1 28932U 06002B   26166.14299657  .00005131  00000+0  24822-3 0  9996
2 28932  98.2556 321.7868 0049559 269.4517  90.1035 15.18037657109216
RESURS-DK 1             
1 29228U 06021A   26166.25057079  .00002190  00000+0  12908-3 0  9992
2 29228  69.9340 344.5658 0006853 293.2634  66.7810 15.13211435102289
CZ-4B R/B               
1 29507U 06046C   26166.07724283  .00003856  00000+0  19206-3 0  9995
2 29507  97.5453 210.6906 0031028 290.4150  69.3752 15.17770657 74815
CZ-2C R/B               
1 31114U 07010B   26166.29871491  .00000062  00000+0  47363-4 0  9994
2 31114  98.4096 274.7419 0059135  11.6203 348.6324 14.20275848993572
COSMO-SKYMED 1          
1 31598U 07023A   26166.33040065  .00002130  00000+0  18989-3 0  9993
2 31598  97.8839 358.1706 0001166  98.8041 261.3312 14.97090735 29516
COSMOS 2428             
1 31792U 07029A   26166.23219665 -.00000124  00000+0 -40995-4 0  9994
2 31792  70.9370 358.5825 0007148 138.6529 221.5134 14.12928445977876
SL-16 R/B               
1 31793U 07029B   26166.22242520  .00000182  00000+0  11889-3 0  9991
2 31793  70.9768 327.3585 0002286 261.5112 270.9118 14.14854346979161
KORONAS-FOTON           
1 33504U 09003A   26166.26583901  .00008058  00000+0  16581-3 0  9996
2 33504  82.4280 174.2636 0011500 153.7338 206.4496 15.45689262960809
CZ-2C R/B               
1 37731U 11030B   26166.14055691  .00001143  00000+0  14923-3 0  9998
2 37731  97.8655 121.5635 0053208  34.5157 337.3971 14.81466962804528
H-2A R/B                
1 38341U 12025E   26165.94929078  .00003262  00000+0  29370-3 0  9993
2 38341  98.4826 140.9104 0043783 356.7043   3.3881 14.95708869762757
SHIJIAN-16 (SJ-16)      
1 39358U 13057A   26166.29560478  .00000855  00000+0  85761-4 0  9994
2 39358  74.9728   0.2666 0016834 235.1994 124.7611 14.92602906686069
SL-4 R/B                
1 39679U 14021B   26166.31396268  .00007929  00000+0  16716-3 0  9991
2 39679  51.6036 219.9491 0091332  99.1417 261.9914 15.41921117671324
ALOS-2                  
1 39766U 14029A   26166.24544606  .00001614  00000+0  22292-3 0  9990
2 39766  97.9222 263.4362 0001664  92.6302 267.5100 14.79467289651290
YAOGAN-29               
1 41038U 15069A   26166.35617396  .00000075  00000+0  15903-4 0  9991
2 41038  98.0027 194.9859 0002664  57.0333 303.1136 14.83082470570352
ASTRO-H (HITOMI)        
1 41337U 16012A   26165.98575747  .00002314  00000+0  13128-3 0  9997
2 41337  30.9993  88.4041 0009764 231.8970 128.0788 15.10502589566955
HXMT (HUIYAN)           
1 42758U 17034A   26166.29254778  .00002665  00000+0  13717-3 0  9996
2 42758  43.0126 193.5911 0030407 134.7573 225.5757 15.18467950497376
SAOCOM 1A               
1 43641U 18076A   26166.24573265 -.00000052  00000+0  53448-7 0  9993
2 43641  97.8877 353.0228 0001588  77.9423 282.1968 14.82146210415817
H-2A R/B                
1 43682U 18084L   26166.25019489  .00016197  00000+0  34113-3 0  9991
2 43682  98.8583  44.7175 0023688  47.0203 313.3022 15.45089472420822
SAOCOM 1B               
1 46265U 20059A   26166.27691185  .00000598  00000+0  81564-4 0  9998
2 46265  97.8879 352.1481 0001309  84.2020 275.9343 14.82208879313207
CSS (TIANHE)            
1 48274U 21035A   26166.24937272  .00019313  00000+0  22892-3 0  9995
2 48274  41.4695 333.7940 0007562  61.5785 298.5815 15.60733648292865
COSMOS 2550             
1 48865U 21056A   26166.26347625  .00004230  00000+0  13431-3 0  9994
2 48865  67.1431 105.7247 0008409 268.1274  91.8917 15.33835009278427
CZ-2C R/B               
1 52794U 22058K   26165.74687050  .00033243  00000+0  37205-3 0  9995
2 52794  50.1832 176.2150 0032577 257.8533 101.8791 15.61696583225261
CZ-2C R/B               
1 54039U 22132E   26165.98730470  .00055094  00000+0  43104-3 0  9996
2 54039  97.2893 172.9134 0016323  91.2297 269.0836 15.71278159205606
GSLV R/B                
1 54149U 22138AN  26165.97907138  .00002703  00000+0  22988-3 0  9996
2 54149  87.3800 133.7255 0022559 151.0567 209.1922 14.97247490198487
XRISM                   
1 57800U 23137A   26165.94681590  .00004701  00000+0  25816-3 0  9994
2 57800  31.0032  14.1135 0007967 301.5988  58.3873 15.12448733152526
ACS3                    
1 59588U 24077B   26165.62138823  .00007840  00000+0  58459-2 0  9999
2 59588  97.1678  84.9820 0068989  65.3065 295.5264 13.93844822107680
CZ-8A R/B               
1 66004U 25231K   26165.95581865 -.00000059  00000+0  37229-4 0  9997
2 66004  50.0056  48.8094 0116470 216.1507 143.1495 14.30154406 34628
SZ-21 MODULE            
1 66515U 25246C   26164.73115900  .00045764  00000+0  28446-3 0  9999
2 66515  41.4731 328.8460 0006751 328.3391  31.7047 15.76117488 33190

ISS (ZARYA)             
1 25544U 98067A   26166.18985271  .00007715  00000+0  14683-3 0  9996
2 25544  51.6338 309.9786 0004834 187.9159 172.1754 15.49238068571443
POISK                   
1 36086U 09060A   26166.18985271  .00007715  00000+0  14683-3 0  9994
2 36086  51.6338 309.9786 0004834 187.9159 172.1754 15.49238068571097
CSS (TIANHE)            
1 48274U 21035A   26166.24937272  .00019313  00000+0  22892-3 0  9995
2 48274  41.4695 333.7940 0007562  61.5785 298.5815 15.60733648292865
ISS (NAUKA)             
1 49044U 21066A   26166.18985271  .00007715  00000+0  14683-3 0  9992
2 49044  51.6338 309.9786 0004834 187.9159 172.1754 15.49238068571141
FREGAT DEB              
1 49271U 11037PF  26151.14915702  .00018955  00000+0  30994-1 0  9992
2 49271  51.6227  53.0895 0914379 245.3590 104.9405 12.41880577222933
CSS (WENTIAN)           
1 53239U 22085A   26166.24937272  .00019313  00000+0  22892-3 0  9998
2 53239  41.4695 333.7940 0007562  61.5785 298.5815 15.60733648288238
CSS (MENGTIAN)          
1 54216U 22143A   26166.24937272  .00019313  00000+0  22892-3 0  9999
2 54216  41.4695 333.7940 0007562  61.5785 298.5815 15.60733648293386
HRC MONOBLOCK CAMERA    
1 66052U 98067XR  26166.04266943  .00075816  00000+0  52686-3 0  9990
2 66052  51.6249 290.1869 0001305 281.0457  79.0395 15.73724779 37666
SZ-21 MODULE            
1 66515U 25246C   26164.73115900  .00045764  00000+0  28446-3 0  9999
2 66515  41.4731 328.8460 0006751 328.3391  31.7047 15.76117488 33190
SOYUZ-MS 28             
1 66664U 25275A   26166.18985271  .00007715  00000+0  14683-3 0  9995
2 66664  51.6338 309.9786 0004834 187.9159 172.1754 15.49238068571249
DUPLEX                  
1 66906U 98067XS  26166.06968065  .00033163  00000+0  37028-3 0  9996
2 66906  51.6286 300.1635 0003455 195.9577 164.1309 15.62452927 30320
ISS OBJECT XY           
1 66912U 98067XY  26166.03689969  .00437878  89788-4  99383-3 0  9991
2 66912  51.6174 285.5254 0010486 315.1880  44.8281 15.96855577 30509
KNACKSAT-2              
1 67683U 98067XZ  26165.65979306  .00044887  00000+0  55154-3 0  9998
2 67683  51.6308 307.1872 0009407 204.1419 155.9135 15.59771864 19882
CORAL                   
1 67684U 98067YA  26165.09002005  .00192136  00000+0  12083-2 0  9994
2 67684  51.6234 304.0900 0008933 237.2595 122.7544 15.75549221 19877
GXIBA-1                 
1 67685U 98067YB  26165.66462707  .00052183  00000+0  60209-3 0  9998
2 67685  51.6300 306.4652 0010633 202.3440 157.7092 15.61334881 19891
UITMSAT-2               
1 67686U 98067YC  26165.68160312  .00072355  00000+0  73487-3 0  9993
2 67686  51.6274 305.0775 0006049 194.6662 165.4159 15.64510659 19913
LEOPARD                 
1 67687U 98067YD  26165.68955615  .00049795  00000+0  58894-3 0  9999
2 67687  51.6316 306.6469 0006637 184.8877 175.2053 15.60751694 19813
HMU-SAT2                
1 67688U 98067YE  26165.66873790  .00062747  00000+0  67767-3 0  9992
2 67688  51.6296 305.7514 0006258 190.5533 169.5331 15.63005499 19828
CREW DRAGON 12          
1 67796U 26031A   26166.18985271  .00007715  00000+0  14683-3 0  9993
2 67796  51.6338 309.9786 0004834 187.9159 172.1754 15.49238068571190
PROGRESS-MS 33          
1 68319U 26058A   26166.18985271  .00007715  00000+0  14683-3 0  9994
2 68319  51.6338 309.9786 0004834 187.9159 172.1754 15.49238068571293
CYGNUS NG-24            
1 68689U 26079A   26166.18985271  .00007715  00000+0  14683-3 0  9997
2 68689  51.6338 309.9786 0004834 187.9159 172.1754 15.49238068571349
PROGRESS-MS 34          
1 68837U 26093A   26166.18985271  .00007715  00000+0  14683-3 0  9998
2 68837  51.6338 309.9786 0004834 187.9159 172.1754 15.49238068571399
TIANZHOU-10             
1 69049U 26102A   26166.24937272  .00019313  00000+0  22892-3 0  9998
2 69049  41.4695 333.7940 0007562  61.5785 298.5815 15.60733648  5624
DRAGON CRS-34           
1 69103U 26107A   26166.18985271  .00007715  00000+0  14683-3 0  9991
2 69103  51.6338 309.9786 0004834 187.9159 172.1754 15.49238068571442
SHENZHOU-23 (SZ-23)     
1 69180U 26113A   26166.24937272  .00019313  00000+0  22892-3 0  9996
2 69180  41.4695 333.7940 0007562  61.5785 298.5815 15.60733648293113
